STARLINK-30525          
1 58012U 23153X   26068.00175496  .00000980  00000+0  46237-4 0  9996
2 58012  43.0059  70.7104 0001869 287.6945  72.3702 15.26741269134791
TOMORROW-S4             
1 62386U 24247K   26068.53305366  .00012677  00000+0  46927-3 0  9990
2 62386  44.9818 117.9996 0004434 210.4078 149.6548 15.27717249 67702
